STARLINK-32918          
1 63087U 25037L   25228.23164826 -.00001333  00000+0 -10393-3 0  9992
2 63087  70.0026 152.5981 0001525 254.9122 105.1868 14.98337323 27821
STARLINK-32912          
1 63088U 25037M   25228.33335648 -.00025279  00000+0 -21178-2 0  9993
2 63088  70.0009 152.0690 0003088 273.1946 162.0940 14.98341061 27847
STARLINK-32910          
1 63089U 25037N   25228.21928890  .00002488  00000+0  21622-3 0  9998
2 63089  70.0014 152.5519 0002817 271.0828  89.0008 14.98336097 27828
STARLINK-32903          
1 63090U 25037P   25228.18155623  .00001358  00000+0  12160-3 0  9994
2 63090  70.0019 152.4292 0002642 265.8361  94.2496 14.98332824 27464
STARLINK-32925          
1 63091U 25037Q   25228.18573140  .00002487  00000+0  21612-3 0  9999
2 63091  70.0015 152.4384 0003414 260.5245  99.5529 14.98340634 27760
STARLINK-32924          
1 63092U 25037R   25228.19407964 -.00000080  00000+0  11287-5 0  9998
2 63092  70.0018 152.4702 0003114 264.9390  95.1413 14.98334289 27824
STARLINK-32900          
1 63093U 25037S   25228.20660190  .00001358  00000+0  12156-3 0  9995
2 63093  70.0019 152.5115 0002840 270.5245  89.5588 14.98333488 27620
STARLINK-32927          
1 63094U 25037T   25228.16906068  .00001948  00000+0  17097-3 0  9992
2 63094  70.0015 152.7838 0002805 269.5021  90.5817 14.98333753 27769
STARLINK-32907          
1 63095U 25037U   25228.22329876  .00000456  00000+0  45999-4 0  9992
2 63095  70.0019 152.5676 0002401 264.5792  95.5093 14.98332028 27770
STARLINK-32911          
1 63096U 25037V   25227.91036676  .00002245  00000+0  19587-3 0  9992
2 63096  70.0020 153.4819 0002589 270.8897  89.1966 14.98337721 27778
STARLINK-32923          
1 63097U 25037W   25228.18990622  .00001708  00000+0  15090-3 0  9991
2 63097  70.0018 152.4547 0002841 270.0077  90.0756 14.98330368 27820
STARLINK-32913          
1 63098U 25037X   25228.20241899  .00007092  00000+0  60127-3 0  9993
2 63098  70.0016 152.4906 0002967 270.3851  89.6968 14.98347571 27766
STARLINK-11629 [DTC]    
1 63104U 25039A   25228.16077843  .00251322  00000+0  18975-2 0  9994
2 63104  43.0004  35.4809 0001608 295.6498  64.4204 15.70914921 28014
STARLINK-11624 [DTC]    
1 63105U 25039B   25227.82266267  .00180496  00000+0  13764-2 0  9991
2 63105  43.0029  38.1291 0002739 268.0423  92.0131 15.70897306 27949
STARLINK-11584 [DTC]    
1 63106U 25039C   25227.82175188  .00181678  00000+0  13856-2 0  9998
2 63106  43.0027  38.1212 0002683 269.8118  90.2442 15.70890367 27955
STARLINK-11627 [DTC]    
1 63107U 25039D   25228.17140143  .00188894  00000+0  14395-2 0  9997
2 63107  42.9997  35.5641 0000721 335.8349  24.2485 15.70887648 28018
