[{"OBJECT_NAME":"STARLINK-32918","OBJECT_ID":"2025-037L","EPOCH":"2025-08-16T05:33:34.409664","MEAN_MOTION":14.98337323,"ECCENTRICITY":0.0001525,"INCLINATION":70.0026,"RA_OF_ASC_NODE":152.5981,"ARG_OF_PERICENTER":254.9122,"MEAN_ANOMALY":105.1868,"EPHEMERIS_TYPE":0,"CLASSIFICATION_TYPE":"U","NORAD_CAT_ID":63087,"ELEMENT_SET_NO":999,"REV_AT_EPOCH":2782,"BSTAR":-0.00010393,"MEAN_MOTION_DOT":-1.333e-5,"MEAN_MOTION_DDOT":0},{"OBJECT_NAME":"STARLINK-32912","OBJECT_ID":"2025-037M","EPOCH":"2025-08-16T08:00:01.999872","MEAN_MOTION":14.98341061,"ECCENTRICITY":0.0003088,"INCLINATION":70.0009,"RA_OF_ASC_NODE":152.069,"ARG_OF_PERICENTER":273.1946,"MEAN_ANOMALY":162.094,"EPHEMERIS_TYPE":0,"CLASSIFICATION_TYPE":"U","NORAD_CAT_ID":63088,"ELEMENT_SET_NO":999,"REV_AT_EPOCH":2784,"BSTAR":-0.0021178,"MEAN_MOTION_DOT":-0.00025279,"MEAN_MOTION_DDOT":0},{"OBJECT_NAME":"STARLINK-32910","OBJECT_ID":"2025-037N","EPOCH":"2025-08-16T05:15:46.560960","MEAN_MOTION":14.98336097,"ECCENTRICITY":0.0002817,"INCLINATION":70.0014,"RA_OF_ASC_NODE":152.5519,"ARG_OF_PERICENTER":271.0828,"MEAN_ANOMALY":89.0008,"EPHEMERIS_TYPE":0,"CLASSIFICATION_TYPE":"U","NORAD_CAT_ID":63089,"ELEMENT_SET_NO":999,"REV_AT_EPOCH":2782,"BSTAR":0.00021622,"MEAN_MOTION_DOT":2.488e-5,"MEAN_MOTION_DDOT":0},{"OBJECT_NAME":"STARLINK-32903","OBJECT_ID":"2025-037P","EPOCH":"2025-08-16T04:21:26.458272","MEAN_MOTION":14.98332824,"ECCENTRICITY":0.0002642,"INCLINATION":70.0019,"RA_OF_ASC_NODE":152.4292,"ARG_OF_PERICENTER":265.8361,"MEAN_ANOMALY":94.2496,"EPHEMERIS_TYPE":0,"CLASSIFICATION_TYPE":"U","NORAD_CAT_ID":63090,"ELEMENT_SET_NO":999,"REV_AT_EPOCH":2746,"BSTAR":0.0001216,"MEAN_MOTION_DOT":1.358e-5,"MEAN_MOTION_DDOT":0},{"OBJECT_NAME":"STARLINK-32925","OBJECT_ID":"2025-037Q","EPOCH":"2025-08-16T04:27:27.192960","MEAN_MOTION":14.98340634,"ECCENTRICITY":0.0003414,"INCLINATION":70.0015,"RA_OF_ASC_NODE":152.4384,"ARG_OF_PERICENTER":260.5245,"MEAN_ANOMALY":99.5529,"EPHEMERIS_TYPE":0,"CLASSIFICATION_TYPE":"U","NORAD_CAT_ID":63091,"ELEMENT_SET_NO":999,"REV_AT_EPOCH":2776,"BSTAR":0.00021612,"MEAN_MOTION_DOT":2.487e-5,"MEAN_MOTION_DDOT":0},{"OBJECT_NAME":"STARLINK-32924","OBJECT_ID":"2025-037R","EPOCH":"2025-08-16T04:39:28.480896","MEAN_MOTION":14.98334289,"ECCENTRICITY":0.0003114,"INCLINATION":70.0018,"RA_OF_ASC_NODE":152.4702,"ARG_OF_PERICENTER":264.939,"MEAN_ANOMALY":95.1413,"EPHEMERIS_TYPE":0,"CLASSIFICATION_TYPE":"U","NORAD_CAT_ID":63092,"ELEMENT_SET_NO":999,"REV_AT_EPOCH":2782,"BSTAR":1.1287e-6,"MEAN_MOTION_DOT":-8.0e-7,"MEAN_MOTION_DDOT":0},{"OBJECT_NAME":"STARLINK-32900","OBJECT_ID":"2025-037S","EPOCH":"2025-08-16T04:57:30.404160","MEAN_MOTION":14.98333488,"ECCENTRICITY":0.000284,"INCLINATION":70.0019,"RA_OF_ASC_NODE":152.5115,"ARG_OF_PERICENTER":270.5245,"MEAN_ANOMALY":89.5588,"EPHEMERIS_TYPE":0,"CLASSIFICATION_TYPE":"U","NORAD_CAT_ID":63093,"ELEMENT_SET_NO":999,"REV_AT_EPOCH":2762,"BSTAR":0.00012156,"MEAN_MOTION_DOT":1.358e-5,"MEAN_MOTION_DDOT":0},{"OBJECT_NAME":"STARLINK-32927","OBJECT_ID":"2025-037T","EPOCH":"2025-08-16T04:03:26.842752","MEAN_MOTION":14.98333753,"ECCENTRICITY":0.0002805,"INCLINATION":70.0015,"RA_OF_ASC_NODE":152.7838,"ARG_OF_PERICENTER":269.5021,"MEAN_ANOMALY":90.5817,"EPHEMERIS_TYPE":0,"CLASSIFICATION_TYPE":"U","NORAD_CAT_ID":63094,"ELEMENT_SET_NO":999,"REV_AT_EPOCH":2776,"BSTAR":0.00017097,"MEAN_MOTION_DOT":1.948e-5,"MEAN_MOTION_DDOT":0},{"OBJECT_NAME":"STARLINK-32907","OBJECT_ID":"2025-037U","EPOCH":"2025-08-16T05:21:33.012864","MEAN_MOTION":14.98332028,"ECCENTRICITY":0.0002401,"INCLINATION":70.0019,"RA_OF_ASC_NODE":152.5676,"ARG_OF_PERICENTER":264.5792,"MEAN_ANOMALY":95.5093,"EPHEMERIS_TYPE":0,"CLASSIFICATION_TYPE":"U","NORAD_CAT_ID":63095,"ELEMENT_SET_NO":999,"REV_AT_EPOCH":2777,"BSTAR":4.5999e-5,"MEAN_MOTION_DOT":4.56e-6,"MEAN_MOTION_DDOT":0},{"OBJECT_NAME":"STARLINK-32911","OBJECT_ID":"2025-037V","EPOCH":"2025-08-15T21:50:55.688064","MEAN_MOTION":14.98337721,"ECCENTRICITY":0.0002589,"INCLINATION":70.002,"RA_OF_ASC_NODE":153.4819,"ARG_OF_PERICENTER":270.8897,"MEAN_ANOMALY":89.1966,"EPHEMERIS_TYPE":0,"CLASSIFICATION_TYPE":"U","NORAD_CAT_ID":63096,"ELEMENT_SET_NO":999,"REV_AT_EPOCH":2777,"BSTAR":0.00019587,"MEAN_MOTION_DOT":2.245e-5,"MEAN_MOTION_DDOT":0},{"OBJECT_NAME":"STARLINK-32923","OBJECT_ID":"2025-037W","EPOCH":"2025-08-16T04:33:27.897408","MEAN_MOTION":14.98330368,"ECCENTRICITY":0.0002841,"INCLINATION":70.0018,"RA_OF_ASC_NODE":152.4547,"ARG_OF_PERICENTER":270.0077,"MEAN_ANOMALY":90.0756,"EPHEMERIS_TYPE":0,"CLASSIFICATION_TYPE":"U","NORAD_CAT_ID":63097,"ELEMENT_SET_NO":999,"REV_AT_EPOCH":2782,"BSTAR":0.0001509,"MEAN_MOTION_DOT":1.708e-5,"MEAN_MOTION_DDOT":0},{"OBJECT_NAME":"STARLINK-32913","OBJECT_ID":"2025-037X","EPOCH":"2025-08-16T04:51:29.000736","MEAN_MOTION":14.98347571,"ECCENTRICITY":0.0002967,"INCLINATION":70.0016,"RA_OF_ASC_NODE":152.4906,"ARG_OF_PERICENTER":270.3851,"MEAN_ANOMALY":89.6968,"EPHEMERIS_TYPE":0,"CLASSIFICATION_TYPE":"U","NORAD_CAT_ID":63098,"ELEMENT_SET_NO":999,"REV_AT_EPOCH":2776,"BSTAR":0.00060127,"MEAN_MOTION_DOT":7.092e-5,"MEAN_MOTION_DDOT":0},{"OBJECT_NAME":"STARLINK-11629 [DTC]","OBJECT_ID":"2025-039A","EPOCH":"2025-08-16T03:51:31.256352","MEAN_MOTION":15.70914921,"ECCENTRICITY":0.0001608,"INCLINATION":43.0004,"RA_OF_ASC_NODE":35.4809,"ARG_OF_PERICENTER":295.6498,"MEAN_ANOMALY":64.4204,"EPHEMERIS_TYPE":0,"CLASSIFICATION_TYPE":"U","NORAD_CAT_ID":63104,"ELEMENT_SET_NO":999,"REV_AT_EPOCH":2801,"BSTAR":0.0018975,"MEAN_MOTION_DOT":0.00251322,"MEAN_MOTION_DDOT":0},{"OBJECT_NAME":"STARLINK-11624 [DTC]","OBJECT_ID":"2025-039B","EPOCH":"2025-08-15T19:44:38.054688","MEAN_MOTION":15.70897306,"ECCENTRICITY":0.0002739,"INCLINATION":43.0029,"RA_OF_ASC_NODE":38.1291,"ARG_OF_PERICENTER":268.0423,"MEAN_ANOMALY":92.0131,"EPHEMERIS_TYPE":0,"CLASSIFICATION_TYPE":"U","NORAD_CAT_ID":63105,"ELEMENT_SET_NO":999,"REV_AT_EPOCH":2794,"BSTAR":0.0013764,"MEAN_MOTION_DOT":0.00180496,"MEAN_MOTION_DDOT":0},{"OBJECT_NAME":"STARLINK-11584 [DTC]","OBJECT_ID":"2025-039C","EPOCH":"2025-08-15T19:43:19.362432","MEAN_MOTION":15.70890367,"ECCENTRICITY":0.0002683,"INCLINATION":43.0027,"RA_OF_ASC_NODE":38.1212,"ARG_OF_PERICENTER":269.8118,"MEAN_ANOMALY":90.2442,"EPHEMERIS_TYPE":0,"CLASSIFICATION_TYPE":"U","NORAD_CAT_ID":63106,"ELEMENT_SET_NO":999,"REV_AT_EPOCH":2795,"BSTAR":0.0013856,"MEAN_MOTION_DOT":0.00181678,"MEAN_MOTION_DDOT":0},{"OBJECT_NAME":"STARLINK-11627 [DTC]","OBJECT_ID":"2025-039D","EPOCH":"2025-08-16T04:06:49.083552","MEAN_MOTION":15.70887648,"ECCENTRICITY":7.21e-5,"INCLINATION":42.9997,"RA_OF_ASC_NODE":35.5641,"ARG_OF_PERICENTER":335.8349,"MEAN_ANOMALY":24.2485,"EPHEMERIS_TYPE":0,"CLASSIFICATION_TYPE":"U","NORAD_CAT_ID":63107,"ELEMENT_SET_NO":999,"REV_AT_EPOCH":2801,"BSTAR":0.0014395,"MEAN_MOTION_DOT":0.00188894,"MEAN_MOTION_DDOT":0}]
